ONEWEB-0102             
1 47258U 20100A   25073.95833611 -.00000220  00000+0 -64679-3 0  9992
2 47258  87.8803  82.0846 0001825  85.6084 274.5253 13.12442480204493
ONEWEB-0109             
1 47259U 20100B   25074.04266630 -.00000398  00000+0 -11416-2 0  9991
2 47259  87.8804  82.0353 0001896  86.1973 273.9372 13.12440403204330
ONEWEB-0110             
1 47260U 20100C   25073.91615210  .00000308  00000+0  82116-3 0  9995
2 47260  87.8797  82.0506 0001998  86.5902 273.5455 13.12445634204487
ONEWEB-0111             
1 47261U 20100D   25074.02322866  .00000152  00000+0  38713-3 0  9992
2 47261  87.8806  82.0392 0001873  88.0948 272.0395 13.12442490204339
ONEWEB-0114             
1 47262U 20100E   25073.97779401 -.00000231  00000+0 -67717-3 0  9993
2 47262  87.8800  82.0522 0001641  81.3176 278.8138 13.12445612204283
ONEWEB-0117             
1 47263U 20100F   25074.04590829 -.00000418  00000+0 -11977-2 0  9991
2 47263  87.8804  82.0255 0001952  90.1930 269.9422 13.12440669204309
ONEWEB-0118             
1 47264U 20100G   25074.07837584  .00000403  00000+0  10838-2 0  9994
2 47264  87.8804  82.0211 0001551  91.5124 268.6183 13.12443714204503
ONEWEB-0119             
1 47265U 20100H   25073.95347083 -.00000112  00000+0 -34745-3 0  9994
2 47265  87.8802  82.0851 0001930  88.1304 272.0046 13.12442259204460
